MALLIGYONG-1            
1 58400U 23179A   24252.49645891  .00012068  00000+0  53468-3 0  9995
2 58400  97.3894 137.9429 0004423 129.6249 230.5378 15.21764558 44392
